satellite_id,name,tle_line1,tle_line2,epoch
1,ISS (ZARYA),1 25544U 98067A   24156.54887731  .00016717  00000+0  30215-3 0  9991,2 25544  51.6403 144.1272 0004063  64.7966  51.9797 15.50484559453136,2024-06-04T00:00:00
2,STARLINK-30000,1 99400U 23999A   24156.41045139  .00003885  00000+0  29391-3 0  9992,2 99400  53.2177  34.9386 0001229  56.9340 303.1731 15.06565650 12345,2024-06-04T00:00:00
3,NOAA 20,1 43013U 17073A   24156.43384197  .00000096  00000+0  81358-4 0  9996,2 43013  98.7558 198.9284 0001565  87.6601 272.4722 14.19522434338211,2024-06-04T00:00:00
4,TERRA,1 25994U 99068A   24156.38138889  .00000072  00000+0  31632-4 0  9994,2 25994  98.2074 198.7449 0001213  83.8881 276.2513 14.57111170425777,2024-06-04T00:00:00
5,FENGYUN 1C DEB,1 30668U 99025BHU 24156.44387731  .00000251  00000+0  10487-3 0  9996,2 30668  97.8683 142.3176 0071943 324.3392  35.0980 14.29683356754589,2024-06-04T00:00:00
